EXO-0                   
1 59175U 23174DK  26068.71046781  .00011582  00000+0  36716-3 0  9992
2 59175  97.3864 148.9039 0009878 157.1125 203.0559 15.32821991129797
STARLINK-34337          
1 64223U 25117W   26068.29880920  .00032131  00000+0  10925-2 0  9991
2 64223  53.1613  41.5755 0001199  96.3533 263.7604 15.30194023 44468
